[{"OBJECT_NAME":"STARLINK-3895","OBJECT_ID":"2022-051AZ","EPOCH":"2026-03-09T12:54:47.429280","MEAN_MOTION":15.08840669,"ECCENTRICITY":0.00013931,"INCLINATION":53.2175,"RA_OF_ASC_NODE":119.8017,"ARG_OF_PERICENTER":90.7443,"MEAN_ANOMALY":269.3709,"EPHEMERIS_TYPE":0,"CLASSIFICATION_TYPE":"U","NORAD_CAT_ID":52583,"ELEMENT_SET_NO":999,"REV_AT_EPOCH":21156,"BSTAR":-8.105283e-6,"MEAN_MOTION_DOT":-4.17e-6,"MEAN_MOTION_DDOT":0},{"OBJECT_NAME":"CZ-4C DEB","OBJECT_ID":"2018-031H","EPOCH":"2026-03-09T10:10:58.582560","MEAN_MOTION":15.14033759,"ECCENTRICITY":0.00199639,"INCLINATION":98.1663,"RA_OF_ASC_NODE":242.9335,"ARG_OF_PERICENTER":272.748,"MEAN_ANOMALY":87.1465,"EPHEMERIS_TYPE":0,"CLASSIFICATION_TYPE":"U","NORAD_CAT_ID":43266,"ELEMENT_SET_NO":999,"REV_AT_EPOCH":43166,"BSTAR":0.00079064643,"MEAN_MOTION_DOT":0.00014379,"MEAN_MOTION_DDOT":0}]
